STARLINK-30905          
1 58356U 23177F   26068.10870226  .00003139  00000+0  12664-3 0  9992
2 58356  43.0027 353.4154 0001599 257.5551 102.5121 15.26741880128087
GESAT GEN1              
1 62612U 25009D   26068.72662138  .00010041  00000+0  38326-3 0  9990
2 62612  97.4058 151.4598 0000888  98.3547 261.7793 15.26847505 63732
